QIANFAN-49              
1 62250U 24232P   25213.52339192  .00000044  00000+0  50342-4 0  9990
2 62250  88.9932  54.7025 0012923 213.8739 146.1587 13.50961177 49857
QIANFAN-50              
1 62251U 24232Q   25213.54828490  .00000038  00000+0  40693-4 0  9998
2 62251  88.9937  54.7008 0014535 216.0155 144.0018 13.50954151 49885
QIANFAN-51              
1 62252U 24232R   25213.53179415  .00000032  00000+0  31752-4 0  9994
2 62252  88.9931  54.7046 0011947 218.9434 141.0858 13.50958216 49871
QIANFAN-55              
1 62785U 25016A   25213.53309106  .00000138  00000+0  19481-3 0  9999
2 62785  88.9850 116.9486 0018635  19.4826 340.7034 13.50963222 29203
QIANFAN-56              
1 62786U 25016B   25213.54954655  .00000124  00000+0  17283-3 0  9999
2 62786  88.9823 116.8197 0017366  22.1156 338.0740 13.50955087 29258
